KAITUO 1B               
1 40912U 15049P   17350.82811549  .00001663  00000-0  84296-4 0  9998
2 40912  97.4514 355.8018 0013906 289.6303 195.8258 15.18292468123996
TIANWANG 1C (TW-1C)     
1 40926U 15051B   17350.79966378  .00008802  00000-0  18088-3 0  9990
2 40926  97.2092  29.1166 0009596 216.0992 232.4481 15.46177228125101
TIANWANG 1B (TW-1B)     
1 40927U 15051C   17350.81334191  .00008450  00000-0  18077-3 0  9993
2 40927  97.2181  29.0612 0008971 229.1378 243.0262 15.45013751125031
TIANWANG 1A (TW-1A)     
1 40928U 15051D   17350.79181189  .00002901  00000-0  80691-4 0  9995
2 40928  97.2080  23.2890 0010450 259.7629 188.6199 15.37602695124749
LAPAN-A2 (IO-86)        
1 40931U 15052B   17350.34901446  .00000734  00000-0  13150-4 0  9995
2 40931   6.0007  13.8173 0013762 302.7816  57.1157 14.76558936119934
LQSAT                   
1 40958U 15057A   17350.70885119  .00000013  00000-0  97984-5 0  9995
2 40958  97.9620  62.6758 0017591 197.4673 162.5932 14.73006688117982
CHUBUSAT-2              
1 41338U 16012B   17350.50815580  .00000375  00000-0  22719-4 0  9997
2 41338  31.0046  34.2074 0013886  64.2287 295.9780 14.99888756100387
CHUBUSAT-3              
1 41339U 16012C   17350.41203310  .00000376  00000-0  22660-4 0  9996
2 41339  31.0098  33.6803 0013572  70.0160 290.1936 15.00082851100357
OUFTI-1                 
1 41458U 16025C   17350.85573302  .00001857  00000-0  10078-3 0  9995
2 41458  98.1639  38.7842 0172991  39.2845 322.0738 15.04059528 90027
E-ST@R-II               
1 41459U 16025D   17350.69981507  .00001132  00000-0  63625-4 0  9991
2 41459  98.1625  38.5245 0173367  40.0423 321.3417 15.03824506 89993
AAUSAT 4                
1 41460U 16025E   17350.70518805  .00001699  00000-0  92632-4 0  9990
2 41460  98.1565  38.7814 0165195  37.4094 323.8447 15.05033662 90030
NUSAT 1 (LO-87)         
1 41557U 16033B   17350.79499449  .00001551  00000-0  59700-4 0  9993
2 41557  97.4512  70.2665 0015592  83.8154 276.4861 15.27825426 86302
BEESAT-4                
1 41619U 16040W   17350.73928563  .00001682  00000-0  77597-4 0  9997
2 41619  97.4408  51.2207 0012794 143.8702 216.3401 15.21565957 70347
PRATHAM                 
1 41783U 16059A   17350.72027370  .00000087  00000-0  26490-4 0  9998
2 41783  98.1447  49.9790 0032560 309.7286  50.1047 14.62887583 65287
ALSAT 1N                
1 41789U 16059G   17350.83057581  .00000092  00000-0  26707-4 0  9990
2 41789  98.1453  50.9467 0027293 302.9682  56.8812 14.64110641 65330
NAYIF-1 (EO-88)         
1 42017U 17008BX  17350.84434898  .00001759  00000-0  75959-4 0  9995
2 42017  97.4736  51.8084 0005190 309.5946  50.4832 15.23842536 46291
LILACSAT-1              
1 42725U 98067ME  17350.84150856  .00013127  00000-0  15454-3 0  9999
2 42725  51.6367 202.4928 0004559 254.1843 105.8648 15.61758526 31953
MAX VALIER SAT          
1 42778U 17036P   17350.82824036  .00001132  00000-0  54255-4 0  9996
2 42778  97.4299  48.3482 0012447 355.7820   4.3308 15.20909394 26780
FOX-1B (AO-91)          
1 43017U 17073E   17350.82141478  .00000450  00000-0  40612-4 0  9990
2 43017  97.6939 284.7319 0261484 144.9635 216.9096 14.77799839  4170
